H1 CPF 01  gfz 2021 01 10 01  5101 terrasarx 
H2 0702601  6201 31698    2021 01 10 00 59 42 2021 01 15 00 00 42   120 1 1  0 0 0
H9
10 0 59227  42462.000000  0     920665.046  -4788796.230   4856138.506
10 0 59227  42582.000000  0     821267.321  -5406836.500   4179847.030
10 0 59227  42702.000000  0     697543.176  -5928427.013   3429981.892
10 0 59227  42822.000000  0     553422.872  -6344033.053   2619725.493
10 0 59227  42942.000000  0     393346.038  -6646055.245   1763336.181
10 0 59227  43062.000000  0     222148.224  -6828977.095    875894.384
10 0 59227  43182.000000  0      44937.644  -6889474.471    -26969.149
10 0 59227  43302.000000  0    -133035.561  -6826479.330   -929359.193
10 0 59227  43422.000000  0    -306512.430  -6641195.811  -1815405.560
10 0 59227  43542.000000  0    -470357.793  -6337071.224  -2669549.351
10 0 59227  43662.000000  0    -619689.329  -5919723.849  -3476821.726
10 0 59227  43782.000000  0    -750000.090  -5396828.078  -4223109.688
10 0 59227  43902.000000  0    -857271.029  -4777959.776  -4895402.035
10 0 59227  44022.000000  0    -938071.056  -4074408.594  -5482010.715
10 0 59227  44142.000000  0    -989642.536  -3298961.836  -5972765.932
10 0 59227  44262.000000  0   -1009970.480  -2465664.605  -6359182.372
10 0 59227  44382.000000  0    -997834.544  -1589561.134  -6634594.551
10 0 59227  44502.000000  0    -952843.246   -686423.357  -6794260.583
10 0 59227  44622.000000  0    -875450.062    227529.625  -6835435.385
10 0 59227  44742.000000  0    -766950.252   1135916.787  -6757411.617
10 0 59227  44862.000000  0    -629459.499   2022480.988  -6561530.336
10 0 59227  44982.000000  0    -465874.909   2871372.426  -6251160.684
10 0 59227  45102.000000  0    -279817.816   3667427.237  -5831649.692
10 0 59227  45222.000000  0     -75559.032   4396437.158  -5310239.449
10 0 59227  45342.000000  0     142071.621   5045404.238  -4695953.160
10 0 59227  45462.000000  0     367790.074   5602778.834  -3999450.500
10 0 59227  45582.000000  0     595975.796   6058674.479  -3232851.916
10 0 59227  45702.000000  0     820800.094   6405054.421  -2409534.810
10 0 59227  45822.000000  0    1036362.377   6635886.261  -1543903.948
10 0 59227  45942.000000  0    1236831.161   6747259.534   -651138.945
10 0 59227  46062.000000  0    1416586.589   6737462.297    253076.209
10 0 59227  46182.000000  0    1570360.372   6607013.089   1152835.811
10 0 59227  46302.000000  0    1693368.711   6358648.397   2032299.839
10 0 59227  46422.000000  0    1781436.151   5997266.664   2875980.843
10 0 59227  46542.000000  0    1831106.825   5529829.351   3669024.333
10 0 59227  46662.000000  0    1839739.733   4965220.799   4397477.492
10 0 59227  46782.000000  0    1805586.150   4314070.026   5048538.834
10 0 59227  46902.000000  0    1727846.702   3588538.651   5610783.674
10 0 59227  47022.000000  0    1606707.325   2802085.406   6074359.189
10 0 59227  47142.000000  0    1443354.589   1969210.439   6431152.943
10 0 59227  47262.000000  0    1239969.030   1105182.336   6674929.433
10 0 59227  47382.000000  0     999697.172    225754.867   6801431.996
10 0 59227  47502.000000  0     726602.979   -653119.210   6808451.990
10 0 59227  47622.000000  0     425598.977  -1515576.996   6695866.687
10 0 59227  47742.000000  0     102357.754  -2346131.784   6465641.321
10 0 59227  47862.000000  0    -236794.779  -3129951.706   6121796.951
10 0 59227  47982.000000  0    -585001.359  -3853125.911   5670342.193
10 0 59227  48102.000000  0    -935008.580  -4502912.086   5119173.378
10 0 59227  48222.000000  0   -1279314.694  -5067965.948   4477945.492
10 0 59227  48342.000000  0   -1610328.300  -5538549.189   3757909.581
10 0 59227  48462.000000  0   -1920532.653  -5906707.467   2971717.325
10 0 59227  48582.000000  0   -2202652.726  -6166413.459   2133198.645
10 0 59227  48702.000000  0   -2449821.064  -6313673.020   1257115.786
10 0 59227  48822.000000  0   -2655737.082  -6346591.480    358897.642
10 0 59227  48942.000000  0   -2814816.549  -6265397.982   -545639.673
10 0 59227  49062.000000  0   -2922327.335  -6072426.899  -1440580.128
10 0 59227  49182.000000  0   -2974508.235  -5772056.581  -2310196.503
10 0 59227  49302.000000  0   -2968667.856  -5370607.369  -3139234.158
10 0 59227  49422.000000  0   -2903260.560  -4876201.244  -3913183.681
10 0 59227  49542.000000  0   -2777937.722  -4298587.688  -4618535.277
10 0 59227  49662.000000  0   -2593574.219  -3648942.124  -5243010.711
10 0 59227  49782.000000  0   -2352270.510  -2939641.881  -5775770.061
10 0 59227  49902.000000  0   -2057330.366  -2184024.574  -6207590.830
10 0 59227  50022.000000  0   -1713213.952  -1396133.874  -6531017.143
10 0 59227  50142.000000  0   -1325468.392   -590458.089  -6740476.663
10 0 59227  50262.000000  0    -900638.372    218333.191  -6832365.698
10 0 59227  50382.000000  0    -446157.008   1015650.008  -6805104.067
10 0 59227  50502.000000  0      29781.699   1787238.454  -6659159.134
10 0 59227  50622.000000  0     518365.593   2519428.657  -6397039.273
10 0 59227  50742.000000  0    1010323.799   3199373.135  -6023257.502
10 0 59227  50862.000000  0    1496098.880   3815270.751  -5544261.110
10 0 59227  50982.000000  0    1966028.323   4356571.966  -4968330.786
10 0 59227  51102.000000  0    2410534.191   4814164.078  -4305449.453
10 0 59227  51222.000000  0    2820316.668   5180532.352  -3567139.141
10 0 59227  51342.000000  0    3186547.495   5449892.203  -2766269.144
10 0 59227  51462.000000  0    3501060.292   5618290.562  -1916837.039
10 0 59227  51582.000000  0    3756532.171   5683671.935  -1033725.302
10 0 59227  51702.000000  0    3946651.629   5645907.815   -132437.871
10 0 59227  51822.000000  0    4066268.367   5506787.292    771177.857
10 0 59227  51942.000000  0    4111521.189   5269968.223   1661217.438
10 0 59227  52062.000000  0    4079940.131   4940891.006   2522006.482
10 0 59227  52182.000000  0    3970521.803   4526658.773   3338386.399
10 0 59227  52302.000000  0    3783771.836   4035880.740   4095988.976
10 0 59227  52422.000000  0    3521718.520   3478489.219   4781491.994
10 0 59227  52542.000000  0    3187894.766   2865534.399   5382857.312
10 0 59227  52662.000000  0    2787286.437   2208957.966   5889540.606
10 0 59227  52782.000000  0    2326255.559   1521355.568   6292670.089
10 0 59227  52902.000000  0    1812436.026    815731.340   6585196.707
10 0 59227  53022.000000  0    1254603.789    105250.475   6762010.417
10 0 59227  53142.000000  0     662525.089   -597005.013   6820024.580
10 0 59227  53262.000000  0      46784.913  -1278277.387   6758227.551
10 0 59227  53382.000000  0    -581402.483  -1926364.781   6577698.736
10 0 59227  53502.000000  0   -1210397.628  -2529839.752   6281590.016
10 0 59227  53622.000000  0   -1828349.567  -3078250.622   5875072.700
10 0 59227  53742.000000  0   -2423416.978  -3562303.878   5365253.998
10 0 59227  53862.000000  0   -2983996.725  -3974026.204   4761060.873
10 0 59227  53982.000000  0   -3498954.510  -4306901.270   4073089.166
10 0 59227  54102.000000  0   -3957849.620  -4555977.658   3313420.630
10 0 59227  54222.000000  0   -4351149.478  -4717946.635   2495412.305
10 0 59227  54342.000000  0   -4670430.989  -4791188.346   1633461.044
10 0 59227  54462.000000  0   -4908563.176  -4775783.454    742745.543
10 0 59227  54582.000000  0   -5059865.689  -4673489.907   -161047.590
10 0 59227  54702.000000  0   -5120239.570  -4487685.604  -1062008.533
10 0 59227  54822.000000  0   -5087266.164  -4223277.976  -1944294.116
10 0 59227  54942.000000  0   -4960270.863  -3886581.907  -2792415.285
10 0 59227  55062.000000  0   -4740350.706  -3485170.669  -3591514.193
10 0 59227  55182.000000  0   -4430366.997  -3027704.943  -4327626.123
10 0 59227  55302.000000  0   -4034903.325  -2523743.870  -4987922.119
10 0 59227  55422.000000  0   -3560190.089  -1983542.791  -5560927.237
10 0 59227  55542.000000  0   -3013998.675  -1417843.022  -6036711.542
10 0 59227  55662.000000  0   -2405507.994   -837657.798  -6407051.897
10 0 59227  55782.000000  0   -1745145.437   -254059.136  -6665562.853
10 0 59227  55902.000000  0   -1044406.220    322030.020  -6807794.607
10 0 59227  56022.000000  0    -315656.165    880034.717  -6831300.590
10 0 59227  56142.000000  0     428081.743   1409917.284  -6735674.935
10 0 59227  56262.000000  0    1173353.281   1902352.548  -6522559.881
10 0 59227  56382.000000  0    1906511.718   2348889.420  -6195622.122
10 0 59227  56502.000000  0    2613962.917   2742094.730  -5760496.339
10 0 59227  56622.000000  0    3282414.249   3075677.201  -5224696.746
10 0 59227  56742.000000  0    3899122.511   3344589.951  -4597499.230
10 0 59227  56862.000000  0    4452139.563   3545110.828  -3889792.316
10 0 59227  56982.000000  0    4930549.181   3674896.912  -3113897.225
10 0 59227  57102.000000  0    5324688.522   3733012.020  -2283359.414
10 0 59227  57222.000000  0    5626350.420   3719927.264  -1412715.449
10 0 59227  57342.000000  0    5828961.075   3637492.290   -517237.413
10 0 59227  57462.000000  0    5927727.684   3488878.181    387338.714
10 0 59227  57582.000000  0    5919752.784   3278493.089   1285096.325
10 0 59227  57702.000000  0    5804110.328   3011871.919   2160226.921
10 0 59227  57822.000000  0    5581881.957   2695543.929   2997316.998
10 0 59227  57942.000000  0    5256152.804   2336880.742   3781628.282
10 0 59227  58062.000000  0    4831965.207   1943928.380   4499363.372
10 0 59227  58182.000000  0    4316233.736   1525228.662   5137909.620
10 0 59227  58302.000000  0    3717626.831   1089634.656   5686061.291
10 0 59227  58422.000000  0    3046410.739    646123.621   6134214.570
10 0 59227  58542.000000  0    2314265.122    203612.455   6474528.201
10 0 59227  58662.000000  0    1534076.025   -229219.553   6701054.148
10 0 59227  58782.000000  0     719706.436   -644099.822   6809837.449
10 0 59227  58902.000000  0    -114252.521  -1033320.031   6798980.873
99
